HELIOS 1B               
1 25977U 99064A   26080.55121855  .00001698  00000+0  19260-3 0  9990
2 25977  98.1682 343.1425 0002142  58.4287 301.7137 14.87742957687020
TERRA                   
1 25994U 99068A   26080.58210875  .00000421  00000+0  94868-4 0  9998
2 25994  97.9568 133.5611 0003347 126.0418  33.6676 14.61026713396813
SL-16 R/B               
1 26070U 00006B   26080.38734514 -.00000017  00000+0  15848-4 0  9990
2 26070  71.0006  73.2385 0016149 171.8174 188.3216 14.15823632350214
TITAN 4B R/B            
1 26474U 00047B   26080.55626016  .00004950  00000+0  30936-3 0  9992
2 26474  67.9918   7.1400 0039313  21.4115 338.8667 15.09671421394700
ENVISAT                 
1 27386U 02009A   26080.51207656  .00000122  00000+0  53321-4 0  9997
2 27386  98.3748  33.8292 0001276  81.8145  32.3594 14.39040994260879
IDEFIX & ARIANE 42P R/B 
1 27422U 02021B   26080.59198290  .00000262  00000+0  11615-3 0  9997
2 27422  98.5883  19.0569 0012266 147.5610 212.6330 14.31033848245723
AQUA                    
1 27424U 02022A   26080.59263502  .00000965  00000+0  20223-3 0  9994
2 27424  98.4196  48.1762 0000843 114.5178 303.7992 14.62003536270471
CZ-4B R/B               
1 27432U 02024C   26080.62033007  .00000042  00000+0  44892-4 0  9999
2 27432  98.8812 133.9655 0049859 350.3704 163.0714 14.14549827230928
MIDORI II (ADEOS-II)    
1 27597U 02056A   26080.42445672  .00000294  00000+0  13332-3 0  9992
2 27597  98.7790  38.9846 0001098  27.9753 332.1487 14.29293684211977
H-2A R/B                
1 27601U 02056E   26080.51118318  .00000272  00000+0  10961-3 0  9993
2 27601  98.3224  40.4282 0071132 125.7612 346.4038 14.33768197215807
CZ-4B R/B               
1 28059U 03049C   26080.55539836  .00000369  00000+0  96289-4 0  9995
2 28059  98.6890  75.9267 0047833 194.1797 165.8059 14.55030817188325
CZ-2C R/B               
1 28222U 04012C   26080.43640504  .00083219  00000+0  81124-3 0  9996
2 28222  97.7193 146.8524 0012966 261.6055  98.3734 15.65861385206115
SL-16 R/B               
1 28353U 04021B   26080.54887537 -.00000126  00000+0 -40935-4 0  9996
2 28353  70.9999 207.6046 0004624 354.9145   5.1929 14.14593368124511
CZ-4B R/B               
1 28415U 04035C   26080.55701073  .00010141  00000+0  35501-3 0  9999
2 28415  97.3474 114.6575 0030099 287.3238  72.4710 15.29258634181724
CZ-2C R/B               
1 28480U 04046B   26080.47584698  .00000135  00000+0  64616-4 0  9998
2 28480  98.1980 354.7258 0140436 119.7757 241.7478 14.26995946110187
ARIANE 5 R/B            
1 28499U 04049H   26080.42202004  .00000750  00000+0  89303-4 0  9997
2 28499  98.2644 249.3197 0083176 313.6443  45.7893 14.85286277147537
CZ-2D R/B               
1 28738U 05024B   26080.57097328  .00059774  00000+0  70470-3 0  9998
2 28738  97.3583  96.1617 0003745  12.0563 348.0783 15.61177051141633
